0 FENGYUN 1C DEB
1 33706U 99025DGT 13283.18699043  .00004192  00000-0  13700-2 0  3499
2 33706 098.9201 008.4144 0157659 349.2868 010.4969 14.32273897301878
0 FENGYUN 1C DEB
1 33706U 99025DGT 13284.44442118  .00004835  00000-0  15776-2 0  3509
2 33706 098.9194 009.7062 0157525 345.6341 014.0388 14.32280042302056
0 FENGYUN 1C DEB
1 33706U 99025DGT 13285.70184558  .00003872  00000-0  12666-2 0  3516
2 33706 098.9209 011.0019 0157532 341.9054 017.6560 14.32289088302239
0 FENGYUN 1C DEB
1 33706U 99025DGT 13287.44825573  .00004332  00000-0  14150-2 0  3521
2 33706 098.9215 012.7990 0157516 336.7564 022.6548 14.32300156302481
0 FENGYUN 1C DEB
1 33706U 99025DGT 13290.03290788  .00005743  00000-0  18692-2 0  3537
2 33706 098.9215 015.4582 0157463 329.1254 030.0740 14.32326773302852
0 FENGYUN 1C DEB
1 33706U 99025DGT 13291.42999963  .00005531  00000-0  18003-2 0  3544
2 33706 098.9215 016.8960 0157484 324.9759 034.1145 14.32340313303056
0 FENGYUN 1C DEB
1 33706U 99025DGT 13292.47781073  .00005353  00000-0  17425-2 0  3551
2 33706 098.9209 017.9746 0157498 321.8829 037.1295 14.32349458303207
0 FENGYUN 1C DEB
1 33706U 99025DGT 13295.48150097  .00007003  00000-0  22726-2 0  3566
2 33706 098.9199 021.0654 0157565 313.0097 045.7971 14.32376388303639
